STARLINK-34195          
1 64142U 25111V   26068.41262458 -.00004784  00000+0 -16440-3 0  9993
2 64142  43.0043  79.2029 0001592 270.1380  89.9290 15.27581495 45429
TIANHUI 7               
1 67300U 25314A   26052.67009905  .00006572  00000+0  25701-3 0  9999
2 67300  97.4117 129.4508 0001691  83.9579 276.1853 15.26178925  8178
